0 STARLINK-36736
1 67911U 26036H   26177.17821094  .00006442  00000-0  24339-3 0  9996
2 67911  43.0016 352.6031 0000777   1.8233 358.2621 15.27584567 20311
0 STARLINK-3173
1 51111U 22005H   26177.17819773 -.00000089  00000-0  12527-4 0  9993
2 51111  53.1581 161.9459 0001255  79.5686 280.5447 15.08837198245251
0 STARLINK-34606
1 64730U 25144G   26177.17818082  .00754593  00000-0  22972-1 0  9990
2 64730  53.1570  37.0035 0001803  62.6902 297.4282 15.31181436 56321
0 FENGYUN 1C DEB
1 29934U 99025JG  26177.17816758  .00003046  00000-0  53385-3 0  9998
2 29934  98.8792 244.6670 0099004  11.5408 348.8030 14.65463406 26308
0 STARLINK-6044
1 56479U 23064AH  26177.17815204 -.00000087  00000-0  49506-6 0  9993
2 56479  69.9987 210.7587 0003531 268.3482  91.7272 14.98330838171998
0 STARLINK-34742
1 64942U 25158L   26177.17814314  .00005068  00000-0  35490-3 0  9991
2 64942  97.3127  39.7562 0001959  88.1909 271.9543 15.05652479 51682
0 STARLINK-5530
1 56494U 23064AY  26177.17809414  .00000008  00000-0  84807-5 0  9990
2 56494  69.9988 190.8886 0003651 266.4759  93.5983 14.98329238172470
0 IRIDIUM 147
1 43480U 18047E   26177.17808164 -.00000004  00000-0 -84587-5 0  9990
2 43480  86.3954  84.5786 0002024  87.1342 273.0086 14.34217485423775
0 ONEWEB-0694
1 56722U 23068N   26177.17806660 -.00000049  00000-0 -16309-3 0  9995
2 56722  87.9100 226.9734 0002515  92.4566 267.6852 13.16594868152956
0 ONEWEB-0343
1 49209U 21083Z   26177.17800977  .00000098  00000-0  21530-3 0  9991
2 49209  87.9169 333.6681 0001828 107.8746 252.2586 13.18685761231224
0 STARLINK-35258
1 65861U 25223H   26177.17800907  .00022977  00000-0  68899-3 0  9995
2 65861  53.1573 148.9865 0001119  75.0356 285.0770 15.34405130 40831
0 STARLINK-37264
1 68729U 26082B   26177.17800110  .00020000  00000-0  61979-3 0  9998
2 68729  97.2863  40.5068 0001389  84.4537 275.6864 15.33465491 11072
0 STARLINK-3811
1 52383U 22045BE  26177.17799655 -.00040098  00000-0 -21440-2 0  9992
2 52383  53.1614  51.8705 0003761 266.1942  93.8622 15.14562317232446
0 STARLINK-4467
1 53686U 22105AQ  26177.17797471 -.00001650  00000-0 -11047-3 0  9994
2 53686  97.3175  55.6895 0003678  96.5750 263.5897 15.05647998209551
0 STARLINK-1653
1 46352U 20062AD  26177.17795922  .00173269  00000-0  81603-3 0  9994
2 46352  53.0347 145.7880 0002909 333.0155  27.0715 15.82099217322123
0 STARLINK-5846
1 56492U 23064AW  26177.17794759  .00000604  00000-0  58437-4 0  9994
2 56492  69.9986 190.8878 0003624 266.9353  93.1391 14.98331528172487
0 STARLINK-36299
1 68534U 26068AC  26177.17790837  .00012774  00000-0  38870-3 0  9993
2 68534  53.1592 343.3172 0002305  79.1023 281.0238 15.34388209 13582
0 STARLINK-30915
1 58380U 23178G   26177.17786154  .00011498  00000-0  35162-3 0  9990
2 58380  53.1611 126.9071 0001614  87.2491 272.8696 15.34334836147734
0 FENGYUN 1C DEB
1 30251U 99025XL  26177.17780029  .00000855  00000-0  34616-3 0  9994
2 30251  99.0365  27.9344 0052375 122.2109 358.5767 14.29759599  9340
0 ONEWEB-0579
1 56068U 23043Y   26177.17778510  .00000039  00000-0  62771-4 0  9995
2 56068  87.9258 242.1815 0001861 103.9572 256.1768 13.21827227159434
0 STARLINK-34802
1 65067U 25165M   26177.17777177  .00000043  00000-0  69245-5 0  9998
2 65067  97.3142 252.8489 0001548 350.3417   9.7780 15.05649726 51115
0 JILIN-1-03
1 41914U 17002B   26177.17777175  .00013955  00000-0  33123-3 0  9992
2 41914  97.1945 184.1359 0007653 129.2623 230.9304 15.41782690523243
0 STARLINK-32271
1 60368U 24138P   26177.17776601  .00000047  00000-0  13700-4 0  9995
2 60368  53.1595 165.9724 0001238  98.8591 261.2550 15.30195880107235
0 STARLINK-32330
1 61850U 24202F   26177.17776502 -.00000835  00000-0 -20817-4 0  9998
2 61850  43.0043 344.9534 0002760 267.9666  92.0869 15.27570408 91930
0 STARLINK-4085
1 53262U 22086W   26177.17774897 -.00000936  00000-0 -40718-4 0  9993
2 53262  53.1605  66.9527 0001323  96.7962 263.3180 15.08821841217442
0 STARLINK-5040
1 53914U 22119AE  26177.17773730  .00000492  00000-0  48967-4 0  9998
2 53914  53.1580 186.8954 0000862  92.6288 267.4802 15.08842020208209
0 STARLINK-30425
1 57850U 23141L   26177.17769802 -.00001888  00000-0 -51650-4 0  9997
2 57850  53.1597 140.2792 0000911  79.6792 280.4311 15.30202058156932
0 STARLINK-5624
1 55416U 23014AB  26177.17769706 -.00000608  00000-0 -43173-4 0  9995
2 55416  69.9997 170.8766 0003689 263.8951  96.1787 14.98335147187815
0 STARLINK-31320
1 58886U 24020L   26177.17769705  .00000882  00000-0  37251-4 0  9998
2 58886  53.1580 176.9113 0001346  90.9485 269.1671 15.34392087134705
0 QIANFAN-75
1 63161U 25046C   26177.17764520  .00000133  00000-0  18686-3 0  9998
2 63161  88.9717 299.8747 0013897 281.4352  78.5238 13.51010085 73735
0 TIANMU-1 21
1 58662U 23208C   26177.17764025  .00010290  00000-0  30307-3 0  9995
2 58662  97.4508 296.8882 0005659 284.2223  75.8392 15.35227310138941
0 STARLINK-2285
1 48019U 21024AU  26177.17762992  .00013774  00000-0  45496-3 0  9990
2 48019  53.1559 162.1436 0001249 103.5773 256.5367 15.31688133291541
0 STARLINK-31625
1 59458U 24068D   26177.17761204  .00000045  00000-0  11168-4 0  9992
2 59458  43.0017 141.9115 0001498 271.9083  88.1597 15.27575720125111
0 STARLINK-1558
1 46035U 20055J   26177.17759581 -.00001865  00000-0 -50835-4 0  9993
2 46035  53.1598 342.7912 0001494  85.0127 275.1045 15.30201035325509
0 STARLINK-35761
1 66961U 25288C   26177.17758272  .00022071  00000-0  80905-3 0  9992
2 66961  43.0008 130.3936 0001257 274.5644  85.5064 15.27585261 31887
0 STARLINK-34628
1 64864U 25152Y   26177.17754854  .00005347  00000-0  37410-3 0  9994
2 64864  97.3124  31.1602 0002349  79.5129 280.6363 15.05665315 51742
0 ONEWEB-0226
1 48793U 21045AC  26177.17752249 -.00000098  00000-0 -29448-3 0  9992
2 48793  87.9003 257.4026 0001765 103.1183 257.0144 13.15546575245536
0 FENGYUN 1C DEB
1 31281U 99025BNP 26177.17751654  .00057128  00000-0  15675-2 0  9998
2 31281  98.4012 341.0320 0081488 140.5569 220.1642 15.33716595 26799
0 ONEWEB-0377
1 49303U 21090AA  26177.17750881  .00000004  00000-0 -22742-4 0  9997
2 49303  87.9194 272.6443 0002136  94.9377 265.2000 13.20772208231708
0 STARLINK-31487
1 59297U 24056B   26177.17749846 -.00001850  00000-0 -57728-4 0  9997
2 59297  43.0042 338.2437 0001831 265.0882  94.9761 15.27570037127868
0 STARLINK-5019
1 55407U 23014S   26177.17748376  .00001316  00000-0  11805-3 0  9996
2 55407  69.9994 151.0074 0002883 272.0181  88.0647 14.98340455188305
0 YAOGAN-43 O1B
1 60459U 24148B   26177.17742957  .00014778  00000-0  40985-3 0  9994
2 60459  34.9925  76.3944 0009361 292.1889  67.7836 15.36023694103818
0 IRIDIUM 38
1 25043U 97069E   26177.17739447  .00000325  00000-0  99822-4 0  9994
2 25043  86.3945  75.8458 0001623  26.9788 333.1495 14.38491997499713
0 ONEWEB-0146
1 47292U 20100AL  26177.17738228  .00000084  00000-0  19910-3 0  9993
2 47292  87.8953 348.8729 0001548  84.6798 275.4507 13.12441234265858
0 STARLINK-34836
1 65399U 25191W   26177.17737888  .00002090  00000-0  14872-3 0  9998
2 65399  97.3114  47.1492 0001942  95.4381 264.7068 15.05657340 46595
0 STARLINK-33579
1 62764U 25015G   26177.17737400  .00032356  00000-0  10489-2 0  9993
2 62764  53.1554 177.6547 0001045 103.5622 256.5495 15.31730289 81101
0 STARLINK-37296
1 68672U 26077L   26177.17737344  .00013436  00000-0  41774-3 0  9993
2 68672  97.2854  48.2893 0002861 108.4752 251.6802 15.33445128 11781
0 STARLINK-1212
1 45223U 20012AX  26177.17736751  .00061022  00000-0  47559-3 0  9995
2 45223  53.0375 180.0154 0001550  91.9197 268.1998 15.71141487352593
0 STARLINK-37075
1 68255U 26054Z   26177.17732235  .00076459  00000-0  13698-2 0  9996
2 68255  53.1575 146.4347 0001390  61.5923 298.5226 15.49300093 15691
0 STARLINK-34573
1 64676U 25139N   26177.17730406  .00016736  00000-0  50524-3 0  9992
2 64676  53.1595 341.0274 0000963 118.8345 241.2755 15.34405983 56928
0 STARLINK-3393
1 51132U 22005AE  26177.17728216  .00000462  00000-0  47146-4 0  9996
2 51132  53.1590 171.9513 0001267  79.4508 280.6626 15.08835791245102
0 STARLINK-11193
1 60195U 24124N   26177.17728027 -.00006465  00000-0 -48544-4 0  9993
2 60195  53.1593 346.4192 0000760 109.8296 250.2804 15.69712296113572
0 STARLINK-11204
1 60931U 24155H   26177.17725566 -.00001851  00000-0 -10430-4 0  9997
2 60931  53.1555 166.2936 0000800  77.3523 282.7584 15.69699471105440
0 STARLINK-30416
1 57847U 23141H   26177.17724916  .00000561  00000-0  29845-4 0  9996
2 57847  53.1599 139.7697 0001347  86.9944 273.1211 15.31707028156948
0 STARLINK-11527
1 62523U 25004N   26177.17724780  .00142590  00000-0  10969-2 0  9996
2 62523  42.9972 136.5429 0000554 254.1610 105.9196 15.70816462 84278
0 STARLINK-5306
1 55271U 23010C   26177.17724089 -.00000032  00000-0  50959-5 0  9996
2 55271  70.0000 131.0268 0003359 271.2534  88.8240 14.98333059189030
0 ONEWEB-0372
1 49298U 21090V   26177.17723623 -.00004141  00000-0 -10218-1 0  9993
2 49298  87.9198 272.6509 0001874  99.8649 260.2696 13.20793536231020
0 STARLINK-32014
1 60150U 24120R   26177.17722568 -.00000607  00000-0 -68363-5 0  9998
2 60150  53.1599 175.4757 0001161  89.9292 270.1844 15.34384927112994
0 YAOGAN 16C
1 39013U 12066C   26177.17722529 -.00000006  00000-0  80816-4 0  9993
2 39013  63.3547 266.3014 0436429  26.5078 335.7567 13.45505345667341
0 FENGYUN 1C DEB
1 29849U 99025ET  26177.17720146  .00001757  00000-0  10757-2 0  9990
2 29849  99.0038 265.1922 0080646 217.8434 201.8943 14.05556122991156
0 STARLINK-35206
1 65614U 25207Y   26177.17718233 -.00006037  00000-0 -41490-3 0  9992
2 65614  97.3138 244.2687 0001390  52.5064 307.6290 15.05643194 44477
0 STARLINK-30566
1 58054U 23158D   26177.17716022 -.00016956  00000-0 -60783-3 0  9996
2 58054  42.9952 134.2061 0001228 131.6192 228.4765 15.27591792150163
